IONOSFERA-M 2           
1 61736U 24199B   26168.93134462  .00000046  00000+0  40118-4 0  9990
2 61736  98.7171  42.0063 0001015  39.3482 320.7769 14.22757717130932
PRSC-EO1                
1 62725U 25012A   26168.98289649  .00005213  00000+0  26244-3 0  9991
2 62725  97.4224 241.4275 0004828 248.6197 111.4522 15.17617861 78314
BIOMASS                 
1 63772U 25090A   26168.51077414  .00000441  00000+0  86213-4 0  9995
2 63772  98.0740 355.8232 0001385  95.1769 264.9594 14.67537521 60733
GOSAT-GW (IBUKI GW)     
1 64694U 25141A   26168.94014601  .00000033  00000+0  14198-4 0  9992
2 64694  98.0569 106.2451 0001421  85.1629 274.9738 14.67553615 51959
IONOSFERA-M 3           
1 64876U 25155A   26168.94970787  .00000041  00000+0  38240-4 0  9998
2 64876  98.6025 130.8355 0001066 155.3644 204.7585 14.21486616 46515
IONOSFERA-M 4           
1 64877U 25155B   26168.91415966  .00000042  00000+0  38735-4 0  9999
2 64877  98.6030 130.7183 0001070 120.2050 239.9234 14.21488770 46500
MICROCARB               
1 64899U 25156A   26168.82935544  .00000401  00000+0  71214-4 0  9991
2 64899  97.9832 245.9552 0014963 269.9967  89.9526 14.72326092 48062
CO3D 3                  
1 64900U 25156B   26168.91168552  .00003520  00000+0  16567-3 0  9995
2 64900  97.4331 247.5944 0001493 128.5492 231.5877 15.20199870 49649
CO3D 4                  
1 64901U 25156C   26168.64854398  .00000229  00000+0  13681-4 0  9994
2 64901  97.4333 247.3348 0000112   1.7438 358.3797 15.20201715 49604
CO3D 2                  
1 64902U 25156D   26168.87849372  .00003609  00000+0  16976-3 0  9990
2 64902  97.4328 247.4605 0001496 107.0014 253.1385 15.20201851 49631
CO3D 1                  
1 64903U 25156E   26168.87864624  .00004320  00000+0  20258-3 0  9997
2 64903  97.4329 247.4608 0001272 108.9426 251.1948 15.20201863 49631
PRSC-S1                 
1 65055U 25164A   26168.72802830  .00003849  00000+0  26795-3 0  9997
2 65055  41.1310 284.7669 0006513 347.4331  12.6319 15.06462716 48513
SENTINEL-6B             
1 66514U 25264A   26168.32005933 -.00000069  00000+0 -34174-4 0  9998
2 66514  66.0395 134.9024 0008016 269.1832  90.8264 12.80929950 27184
CAS500-3                
1 66655U 25274F   26168.75309136  .00001003  00000+0  11420-3 0  9999
2 66655  97.7445  96.7912 0006768 108.6905 251.5047 14.88322100 30237
CSG-3                   
1 67304U 26001A   26168.94165477  .00000236  00000+0  36192-4 0  9990
2 67304  97.8888 352.5325 0001385  94.7709 265.3663 14.82154268 24578
PRSC-E03                
1 68835U 26092A   26168.78472277  .00002147  00000+0  14915-3 0  9992
2 68835  38.0008  86.1566 0003601   9.2031 350.8796 15.06670977  8046
CAS500-2                
1 69013U 26100AK  26168.87604879  .00005271  00000+0  24333-3 0  9992
2 69013  97.4073  66.7190 0010638  32.5506 327.6383 15.20596874  6914
